{
  "type": "FeatureCollection",
  "features": [
    {
      "type": "Feature",
      "properties": {
        "norad_id": 66628,
        "name": "STARLINK-35862",
        "group": "last-30-days",
        "lat": -27.942171818865045,
        "lon": -176.84481432059977,
        "alt_km": 370.58849357851886,
        "timestamp": "2025-12-08T17:43:03.633396+00:00",
        "meta_object_name": "STARLINK-35862",
        "meta_object_id": "2025-271M",
        "meta_epoch": "2025-12-08T06:00:02.999808",
        "meta_mean_motion": 15.69407696,
        "meta_eccentricity": 8.811e-05,
        "meta_inclination": 53.1594,
        "meta_ra_of_asc_node": 208.9906,
        "meta_arg_of_pericenter": 87.1782,
        "meta_mean_anomaly": 359.0558,
        "meta_ephemeris_type": 0,
        "meta_classification_type": "U",
        "meta_norad_cat_id": 66628,
        "meta_element_set_no": 999,
        "meta_rev_at_epoch": 352,
        "meta_bstar": -0.018620885,
        "meta_mean_motion_dot": -0.01968421,
        "meta_mean_motion_ddot": 0,
        "tle_line1": "1 66628U 25271M   25342.25003472 -.01968421  00000+0 -18621-1 0  9995",
        "tle_line2": "2 66628  53.1594 208.9906 0000881  87.1782 359.0558 15.69407696  3529"
      },
      "geometry": {
        "type": "Point",
        "coordinates": [
          -176.84481432059977,
          -27.942171818865045
        ]
      }
    },
    {
      "type": "Feature",
      "properties": {
        "norad_id": 66629,
        "name": "STARLINK-35956",
        "group": "last-30-days",
        "lat": -26.52892551465864,
        "lon": -175.3954382342689,
        "alt_km": 370.4877462283657,
        "timestamp": "2025-12-08T17:43:03.633406+00:00",
        "meta_object_name": "STARLINK-35956",
        "meta_object_id": "2025-271N",
        "meta_epoch": "2025-12-08T06:00:02.999808",
        "meta_mean_motion": 15.69408785,
        "meta_eccentricity": 8.66e-05,
        "meta_inclination": 53.1593,
        "meta_ra_of_asc_node": 208.987,
        "meta_arg_of_pericenter": 89.5719,
        "meta_mean_anomaly": 358.5773,
        "meta_ephemeris_type": 0,
        "meta_classification_type": "U",
        "meta_norad_cat_id": 66629,
        "meta_element_set_no": 999,
        "meta_rev_at_epoch": 352,
        "meta_bstar": -0.018628427,
        "meta_mean_motion_dot": -0.01969193,
        "meta_mean_motion_ddot": 0,
        "tle_line1": "1 66629U 25271N   25342.25003472 -.01969193  00000+0 -18628-1 0  9990",
        "tle_line2": "2 66629  53.1593 208.9870 0000866  89.5719 358.5773 15.69408785  3521"
      },
      "geometry": {
        "type": "Point",
        "coordinates": [
          -175.3954382342689,
          -26.52892551465864
        ]
      }
    },
    {
      "type": "Feature",
      "properties": {
        "norad_id": 66630,
        "name": "STARLINK-35949",
        "group": "last-30-days",
        "lat": -25.101262416523472,
        "lon": -173.98271076205313,
        "alt_km": 370.4533552444018,
        "timestamp": "2025-12-08T17:43:03.633416+00:00",
        "meta_object_name": "STARLINK-35949",
        "meta_object_id": "2025-271P",
        "meta_epoch": "2025-12-08T06:00:02.999808",
        "meta_mean_motion": 15.69409602,
        "meta_eccentricity": 9.229e-05,
        "meta_inclination": 53.1591,
        "meta_ra_of_asc_node": 208.9823,
        "meta_arg_of_pericenter": 95.5601,
        "meta_mean_anomaly": 354.5068,
        "meta_ephemeris_type": 0,
        "meta_classification_type": "U",
        "meta_norad_cat_id": 66630,
        "meta_element_set_no": 999,
        "meta_rev_at_epoch": 352,
        "meta_bstar": -0.018652106,
        "meta_mean_motion_dot": -0.01971502,
        "meta_mean_motion_ddot": 0,
        "tle_line1": "1 66630U 25271P   25342.25003472 -.01971502  00000+0 -18652-1 0  9996",
        "tle_line2": "2 66630  53.1591 208.9823 0000922  95.5601 354.5068 15.69409602  3521"
      },
      "geometry": {
        "type": "Point",
        "coordinates": [
          -173.98271076205313,
          -25.101262416523472
        ]
      }
    },
    {
      "type": "Feature",
      "properties": {
        "norad_id": 66631,
        "name": "STARLINK-35965",
        "group": "last-30-days",
        "lat": -23.659998213076243,
        "lon": -172.60094096044455,
        "alt_km": 370.18089473559667,
        "timestamp": "2025-12-08T17:43:03.633428+00:00",
        "meta_object_name": "STARLINK-35965",
        "meta_object_id": "2025-271Q",
        "meta_epoch": "2025-12-08T06:00:02.999808",
        "meta_mean_motion": 15.69405953,
        "meta_eccentricity": 9.089e-05,
        "meta_inclination": 53.1595,
        "meta_ra_of_asc_node": 208.9786,
        "meta_arg_of_pericenter": 82.3228,
        "meta_mean_anomaly": 9.6634,
        "meta_ephemeris_type": 0,
        "meta_classification_type": "U",
        "meta_norad_cat_id": 66631,
        "meta_element_set_no": 999,
        "meta_rev_at_epoch": 352,
        "meta_bstar": -0.018605033,
        "meta_mean_motion_dot": -0.01966836,
        "meta_mean_motion_ddot": 0,
        "tle_line1": "1 66631U 25271Q   25342.25003472 -.01966836  00000+0 -18605-1 0  9999",
        "tle_line2": "2 66631  53.1595 208.9786 0000908  82.3228   9.6634 15.69405953  3529"
      },
      "geometry": {
        "type": "Point",
        "coordinates": [
          -172.60094096044455,
          -23.659998213076243
        ]
      }
    },
    {
      "type": "Feature",
      "properties": {
        "norad_id": 66632,
        "name": "STARLINK-35973",
        "group": "last-30-days",
        "lat": -22.20677962590912,
        "lon": -171.25026053251264,
        "alt_km": 370.065003248008,
        "timestamp": "2025-12-08T17:43:03.633439+00:00",
        "meta_object_name": "STARLINK-35973",
        "meta_object_id": "2025-271R",
        "meta_epoch": "2025-12-08T06:00:02.999808",
        "meta_mean_motion": 15.69407167,
        "meta_eccentricity": 9.09e-05,
        "meta_inclination": 53.1593,
        "meta_ra_of_asc_node": 208.9747,
        "meta_arg_of_pericenter": 84.0826,
        "meta_mean_anomaly": 9.8195,
        "meta_ephemeris_type": 0,
        "meta_classification_type": "U",
        "meta_norad_cat_id": 66632,
        "meta_element_set_no": 999,
        "meta_rev_at_epoch": 346,
        "meta_bstar": -0.01861757,
        "meta_mean_motion_dot": -0.01968094,
        "meta_mean_motion_ddot": 0,
        "tle_line1": "1 66632U 25271R   25342.25003472 -.01968094  00000+0 -18618-1 0  9992",
        "tle_line2": "2 66632  53.1593 208.9747 0000909  84.0826   9.8195 15.69407167  3465"
      },
      "geometry": {
        "type": "Point",
        "coordinates": [
          -171.25026053251264,
          -22.20677962590912
        ]
      }
    },
    {
      "type": "Feature",
      "properties": {
        "norad_id": 66633,
        "name": "STARLINK-35948",
        "group": "last-30-days",
        "lat": -20.74346564449959,
        "lon": -169.92885259643225,
        "alt_km": 370.0239999725063,
        "timestamp": "2025-12-08T17:43:03.633449+00:00",
        "meta_object_name": "STARLINK-35948",
        "meta_object_id": "2025-271S",
        "meta_epoch": "2025-12-08T06:00:02.999808",
        "meta_mean_motion": 15.69408501,
        "meta_eccentricity": 0.00010337,
        "meta_inclination": 53.1592,
        "meta_ra_of_asc_node": 208.9701,
        "meta_arg_of_pericenter": 74.5926,
        "meta_mean_anomaly": 21.2256,
        "meta_ephemeris_type": 0,
        "meta_classification_type": "U",
        "meta_norad_cat_id": 66633,
        "meta_element_set_no": 999,
        "meta_rev_at_epoch": 352,
        "meta_bstar": -0.018641438,
        "meta_mean_motion_dot": -0.0197051,
        "meta_mean_motion_ddot": 0,
        "tle_line1": "1 66633U 25271S   25342.25003472 -.01970510  00000+0 -18641-1 0  9995",
        "tle_line2": "2 66633  53.1592 208.9701 0001033  74.5926  21.2256 15.69408501  3525"
      },
      "geometry": {
        "type": "Point",
        "coordinates": [
          -169.92885259643225,
          -20.74346564449959
        ]
      }
    },
    {
      "type": "Feature",
      "properties": {
        "norad_id": 66634,
        "name": "STARLINK-35967",
        "group": "last-30-days",
        "lat": -19.269460631617058,
        "lon": -168.6321911705043,
        "alt_km": 369.9076264040441,
        "timestamp": "2025-12-08T17:43:03.633460+00:00",
        "meta_object_name": "STARLINK-35967",
        "meta_object_id": "2025-271T",
        "meta_epoch": "2025-12-08T06:00:02.999808",
        "meta_mean_motion": 15.69409659,
        "meta_eccentricity": 0.00010787,
        "meta_inclination": 53.1588,
        "meta_ra_of_asc_node": 208.9658,
        "meta_arg_of_pericenter": 77.3024,
        "meta_mean_anomaly": 20.4317,
        "meta_ephemeris_type": 0,
        "meta_classification_type": "U",
        "meta_norad_cat_id": 66634,
        "meta_element_set_no": 999,
        "meta_rev_at_epoch": 345,
        "meta_bstar": -0.018652853,
        "meta_mean_motion_dot": -0.01971693,
        "meta_mean_motion_ddot": 0,
        "tle_line1": "1 66634U 25271T   25342.25003472 -.01971693  00000+0 -18653-1 0  9992",
        "tle_line2": "2 66634  53.1588 208.9658 0001078  77.3024  20.4317 15.69409659  3457"
      },
      "geometry": {
        "type": "Point",
        "coordinates": [
          -168.6321911705043,
          -19.269460631617058
        ]
      }
    }
  ]
}